TEVEL2-4                
1 63213U 25052D   26068.69417973  .00020990  00000+0  70363-3 0  9998
2 63213  97.4009 325.1237 0004733  95.3468 264.8313 15.30925813 54879
STARLINK-34687          
1 64909U 25157F   26068.17375094  .00008728  00000+0  30651-3 0  9998
2 64909  53.1608 348.1452 0001068  88.0554 272.0569 15.30195600 35992
